*******************************************************************************
Ephemeris / WWW_USER Mon Jul 15 19:31:03 2024 Pasadena, USA      / Horizons    
*******************************************************************************
Target body name: Hale-Bopp (C/1995 O1)           {source: JPL#226}
Center body name: Earth (399)                     {source: DE441}
Center-site name: Gemini South Obs., Cerro Pachon
*******************************************************************************
Start time      : A.D. 2018-Nov-12 23:23:00.0000 UT      
Stop  time      : A.D. 2018-Nov-13 09:30:00.0000 UT      
Step-size       : 1 minutes
*******************************************************************************
Target pole/equ : undefined
Target radii    : 30. km                                                       
Center geodetic : 289.2634, -30.2406227, 2.71233  {E-lon(deg),Lat(deg),Alt(km)}
Center cylindric: 289.2634,5517.21435,-3194.81213 {E-lon(deg),Dxy(km),Dz(km)}
Center pole/equ : ITRF93                          {East-longitude positive}
Center radii    : 6378.137, 6378.137, 6356.752 km {Equator_a, b, pole_c}       
Target primary  : Sun
Vis. interferer : MOON (R_eq= 1737.400) km        {source: DE441}
Rel. light bend : Sun                             {source: DE441}
Rel. lght bnd GM: 1.3271E+11 km^3/s^2                                          
Small-body perts: Yes                             {source: SB441-N16}
Atmos refraction: NO (AIRLESS)
RA format       : HMS
Time format     : CAL 
Calendar mode   : Mixed Julian/Gregorian
RTS-only print  : NO       
EOP file        : eop.240715.p241008                                           
EOP coverage    : DATA-BASED 1962-JAN-20 TO 2024-JUL-15. PREDICTS-> 2024-OCT-07
Units conversion: 1 au= 149597870.700 km, c= 299792.458 km/s, 1 day= 86400.0 s 
Table cut-offs 1: Elevation (-90.0deg=NO ),Airmass (>38.000=NO), Daylight (YES)
Table cut-offs 2: Solar elongation (  0.0,180.0=NO ),Local Hour Angle( 0.0=NO )
Table cut-offs 3: RA/DEC angular rate (     0.0=NO )                           
*******************************************************************************
Initial IAU76/J2000 heliocentric ecliptic osculating elements (au, days, deg.):
  EPOCH=  2459837.5 ! 2022-Sep-15.0000000 (TDB)    RMSW= n.a.                  
   EC= .9949810027633206   QR= .890537663547794    TP= 2450537.1349071441      
   OM= 282.7334213961641   W= 130.4146670659176    IN= 89.28759424740302       
  Equivalent ICRF heliocentric cartesian coordinates (au, au/d):
   X= 3.907631452214869E+00  Y=-1.373895334060347E+00  Z=-4.624358508575312E+01
  VX= 3.778244409519935E-04 VY=-5.803173067116371E-04 VZ=-3.255716412104052E-03
Comet physical (GM= km^3/s^2; RAD= km):                                        
   GM= n.a.                RAD= 30.                                            
   M1=  4.8      M2=  n.a.     k1=  4.     k2= n.a.     PHCOF= n.a.            
*******************************************************************************
 Date__(UT)__HR:MN     R.A._________(ICRF)_________DEC
******************************************************
$$SOE
 2018-Nov-13 01:27  m  22 21 28.261302 -85 53 58.19302
 2018-Nov-13 01:28  m  22 21 28.248448 -85 53 58.13635
 2018-Nov-13 01:29  m  22 21 28.235597 -85 53 58.07968
 2018-Nov-13 01:30  m  22 21 28.222748 -85 53 58.02300
 2018-Nov-13 01:31  m  22 21 28.209901 -85 53 57.96632
 2018-Nov-13 01:32  m  22 21 28.197057 -85 53 57.90963
 2018-Nov-13 01:33  m  22 21 28.184215 -85 53 57.85295
 2018-Nov-13 01:34  m  22 21 28.171375 -85 53 57.79625
 2018-Nov-13 01:35  m  22 21 28.158537 -85 53 57.73956
 2018-Nov-13 01:36  m  22 21 28.145702 -85 53 57.68286
 2018-Nov-13 01:37  m  22 21 28.132869 -85 53 57.62616
 2018-Nov-13 01:38  m  22 21 28.120038 -85 53 57.56946
 2018-Nov-13 01:39  m  22 21 28.107210 -85 53 57.51275
 2018-Nov-13 01:40  m  22 21 28.094384 -85 53 57.45604
 2018-Nov-13 01:41  m  22 21 28.081561 -85 53 57.39932
 2018-Nov-13 01:42  m  22 21 28.068739 -85 53 57.34261
 2018-Nov-13 01:43  m  22 21 28.055921 -85 53 57.28589
 2018-Nov-13 01:44  m  22 21 28.043104 -85 53 57.22916
 2018-Nov-13 01:45  m  22 21 28.030290 -85 53 57.17244
 2018-Nov-13 01:46  m  22 21 28.017479 -85 53 57.11571
 2018-Nov-13 01:47  m  22 21 28.004669 -85 53 57.05898
 2018-Nov-13 01:48  m  22 21 27.991863 -85 53 57.00224
 2018-Nov-13 01:49  m  22 21 27.979059 -85 53 56.94550
 2018-Nov-13 01:50  m  22 21 27.966257 -85 53 56.88876
 2018-Nov-13 01:51  m  22 21 27.953458 -85 53 56.83201
 2018-Nov-13 01:52  m  22 21 27.940661 -85 53 56.77527
 2018-Nov-13 01:53  m  22 21 27.927867 -85 53 56.71851
 2018-Nov-13 01:54  m  22 21 27.915075 -85 53 56.66176
 2018-Nov-13 01:55  m  22 21 27.902286 -85 53 56.60500
 2018-Nov-13 01:56  m  22 21 27.889499 -85 53 56.54824
 2018-Nov-13 01:57  m  22 21 27.876715 -85 53 56.49148
 2018-Nov-13 01:58  m  22 21 27.863934 -85 53 56.43471
 2018-Nov-13 01:59  m  22 21 27.851155 -85 53 56.37794
 2018-Nov-13 02:00  m  22 21 27.838378 -85 53 56.32117
 2018-Nov-13 02:01  m  22 21 27.825605 -85 53 56.26439
 2018-Nov-13 02:02  m  22 21 27.812834 -85 53 56.20761
 2018-Nov-13 02:03  m  22 21 27.800065 -85 53 56.15083
 2018-Nov-13 02:04  m  22 21 27.787299 -85 53 56.09405
 2018-Nov-13 02:05  m  22 21 27.774536 -85 53 56.03726
 2018-Nov-13 02:06  m  22 21 27.761775 -85 53 55.98047
 2018-Nov-13 02:07  m  22 21 27.749018 -85 53 55.92367
 2018-Nov-13 02:08  m  22 21 27.736262 -85 53 55.86688
 2018-Nov-13 02:09  m  22 21 27.723510 -85 53 55.81008
 2018-Nov-13 02:10  m  22 21 27.710760 -85 53 55.75328
 2018-Nov-13 02:11  m  22 21 27.698013 -85 53 55.69647
 2018-Nov-13 02:12  m  22 21 27.685269 -85 53 55.63966
 2018-Nov-13 02:13  m  22 21 27.672527 -85 53 55.58285
 2018-Nov-13 02:14  m  22 21 27.659788 -85 53 55.52604
 2018-Nov-13 02:15  m  22 21 27.647052 -85 53 55.46922
 2018-Nov-13 02:16  m  22 21 27.634319 -85 53 55.41240
 2018-Nov-13 02:17  m  22 21 27.621588 -85 53 55.35558
 2018-Nov-13 02:18  m  22 21 27.608861 -85 53 55.29875
 2018-Nov-13 02:19  m  22 21 27.596136 -85 53 55.24192
 2018-Nov-13 02:20  m  22 21 27.583414 -85 53 55.18509
 2018-Nov-13 02:21  m  22 21 27.570694 -85 53 55.12826
 2018-Nov-13 02:22  m  22 21 27.557978 -85 53 55.07142
 2018-Nov-13 02:23  m  22 21 27.545264 -85 53 55.01458
 2018-Nov-13 02:24  m  22 21 27.532554 -85 53 54.95774
 2018-Nov-13 02:25  m  22 21 27.519846 -85 53 54.90089
 2018-Nov-13 02:26  m  22 21 27.507141 -85 53 54.84404
 2018-Nov-13 02:27  m  22 21 27.494439 -85 53 54.78719
 2018-Nov-13 02:28  m  22 21 27.481739 -85 53 54.73034
 2018-Nov-13 02:29  m  22 21 27.469043 -85 53 54.67348
 2018-Nov-13 02:30  m  22 21 27.456350 -85 53 54.61662
 2018-Nov-13 02:31  m  22 21 27.443659 -85 53 54.55976
 2018-Nov-13 02:32  m  22 21 27.430972 -85 53 54.50290
 2018-Nov-13 02:33  m  22 21 27.418287 -85 53 54.44603
 2018-Nov-13 02:34  m  22 21 27.405606 -85 53 54.38916
 2018-Nov-13 02:35  m  22 21 27.392927 -85 53 54.33228
 2018-Nov-13 02:36  m  22 21 27.380251 -85 53 54.27541
 2018-Nov-13 02:37  m  22 21 27.367579 -85 53 54.21853
 2018-Nov-13 02:38  m  22 21 27.354909 -85 53 54.16165
 2018-Nov-13 02:39  m  22 21 27.342242 -85 53 54.10477
 2018-Nov-13 02:40  m  22 21 27.329579 -85 53 54.04788
 2018-Nov-13 02:41  m  22 21 27.316918 -85 53 53.99099
 2018-Nov-13 02:42  m  22 21 27.304261 -85 53 53.93410
 2018-Nov-13 02:43  m  22 21 27.291606 -85 53 53.87721
 2018-Nov-13 02:44  m  22 21 27.278955 -85 53 53.82031
 2018-Nov-13 02:45  m  22 21 27.266306 -85 53 53.76341
 2018-Nov-13 02:46  m  22 21 27.253661 -85 53 53.70651
 2018-Nov-13 02:47  m  22 21 27.241019 -85 53 53.64960
 2018-Nov-13 02:48  m  22 21 27.228380 -85 53 53.59270
 2018-Nov-13 02:49  m  22 21 27.215744 -85 53 53.53579
 2018-Nov-13 02:50  m  22 21 27.203111 -85 53 53.47888
 2018-Nov-13 02:51  m  22 21 27.190481 -85 53 53.42196
 2018-Nov-13 02:52  m  22 21 27.177854 -85 53 53.36504
 2018-Nov-13 02:53  m  22 21 27.165231 -85 53 53.30813
 2018-Nov-13 02:54  m  22 21 27.152611 -85 53 53.25120
 2018-Nov-13 02:55  m  22 21 27.139994 -85 53 53.19428
 2018-Nov-13 02:56  m  22 21 27.127380 -85 53 53.13735
 2018-Nov-13 02:57  m  22 21 27.114769 -85 53 53.08042
 2018-Nov-13 02:58  m  22 21 27.102161 -85 53 53.02349
 2018-Nov-13 02:59  m  22 21 27.089557 -85 53 52.96656
 2018-Nov-13 03:00  m  22 21 27.076956 -85 53 52.90962
 2018-Nov-13 03:01  m  22 21 27.064358 -85 53 52.85268
 2018-Nov-13 03:02  m  22 21 27.051763 -85 53 52.79574
 2018-Nov-13 03:03  m  22 21 27.039171 -85 53 52.73880
 2018-Nov-13 03:04  m  22 21 27.026583 -85 53 52.68185
 2018-Nov-13 03:05  m  22 21 27.013998 -85 53 52.62490
 2018-Nov-13 03:06  m  22 21 27.001416 -85 53 52.56795
 2018-Nov-13 03:07  m  22 21 26.988838 -85 53 52.51100
 2018-Nov-13 03:08  m  22 21 26.976263 -85 53 52.45404
 2018-Nov-13 03:09  m  22 21 26.963691 -85 53 52.39709
 2018-Nov-13 03:10  m  22 21 26.951122 -85 53 52.34013
 2018-Nov-13 03:11  m  22 21 26.938557 -85 53 52.28316
 2018-Nov-13 03:12  m  22 21 26.925995 -85 53 52.22620
 2018-Nov-13 03:13  m  22 21 26.913436 -85 53 52.16923
 2018-Nov-13 03:14  m  22 21 26.900881 -85 53 52.11226
 2018-Nov-13 03:15  m  22 21 26.888329 -85 53 52.05529
 2018-Nov-13 03:16  m  22 21 26.875780 -85 53 51.99832
 2018-Nov-13 03:17  m  22 21 26.863235 -85 53 51.94134
 2018-Nov-13 03:18  m  22 21 26.850693 -85 53 51.88436
 2018-Nov-13 03:19  m  22 21 26.838154 -85 53 51.82738
 2018-Nov-13 03:20  m  22 21 26.825619 -85 53 51.77040
 2018-Nov-13 03:21  m  22 21 26.813087 -85 53 51.71342
 2018-Nov-13 03:22  m  22 21 26.800559 -85 53 51.65643
 2018-Nov-13 03:23  m  22 21 26.788034 -85 53 51.59944
 2018-Nov-13 03:24  m  22 21 26.775512 -85 53 51.54245
 2018-Nov-13 03:25  m  22 21 26.762994 -85 53 51.48546
 2018-Nov-13 03:26  m  22 21 26.750480 -85 53 51.42846
 2018-Nov-13 03:27  m  22 21 26.737968 -85 53 51.37147
 2018-Nov-13 03:28  m  22 21 26.725460 -85 53 51.31447
 2018-Nov-13 03:29  m  22 21 26.712956 -85 53 51.25747
 2018-Nov-13 03:30  m  22 21 26.700455 -85 53 51.20046
